start=new Date('2021-11-08T00:00:00.000Z').valueOf();
sats=[{"CLASSIFICATION_TYPE":"U","REF_FRAME":"TEME","EPHEMERIS_TYPE":"0","ARG_OF_PERICENTER":"66.7190","LAUNCH_DATE":"2021-03-11","MEAN_ELEMENT_THEORY":"SGP4","SEMIMAJOR_AXIS":"6925.383","DECAY_DATE":null,"SITE":"AFETR","TLE_LINE1":"1 47823U 21018AN  21311.82947551 -.00000786  00000-0 -33869-4 0  9991","ECCENTRICITY":"0.00015040","PERIAPSIS":"546.206","COUNTRY_CODE":"US","MEAN_MOTION":"15.06388741","TLE_LINE2":"2 47823  53.0549 157.3557 0001504  66.7190 293.3957 15.06388741 38028","INCLINATION":"53.0549","OBJECT_NAME":"STARLINK-2408","FILE":"3207836","RA_OF_ASC_NODE":"157.3557","NORAD_CAT_ID":"47823","ELEMENT_SET_NO":"999","GP_ID":"189215691","TIME_SYSTEM":"UTC","MEAN_ANOMALY":"293.3957","OBJECT_TYPE":"PAYLOAD","APOAPSIS":"548.290","EPOCH":"2021-11-07T19:54:26.684064","BSTAR":"-0.00003386900000","MEAN_MOTION_DDOT":"0.0000000000000","CENTER_NAME":"EARTH","OBJECT_ID":"2021-018AN","MEAN_MOTION_DOT":"-0.00000786","RCS_SIZE":"LARGE","REV_AT_EPOCH":"3802","PERIOD":"95.593"},{"MEAN_ELEMENT_THEORY":"SGP4","DECAY_DATE":null,"SEMIMAJOR_AXIS":"6925.375","REF_FRAME":"TEME","CLASSIFICATION_TYPE":"U","LAUNCH_DATE":"2021-03-11","ARG_OF_PERICENTER":"76.0350","EPHEMERIS_TYPE":"0","ECCENTRICITY":"0.00015570","SITE":"AFETR","TLE_LINE1":"1 47824U 21018AP  21311.68571278  .00000179  00000-0  30910-4 0  9993","INCLINATION":"53.0535","OBJECT_NAME":"STARLINK-2409","FILE":"3207836","ELEMENT_SET_NO":"999","GP_ID":"189215941","TIME_SYSTEM":"UTC","RA_OF_ASC_NODE":"158.0100","NORAD_CAT_ID":"47824","COUNTRY_CODE":"US","MEAN_MOTION":"15.06391376","PERIAPSIS":"546.162","TLE_LINE2":"2 47824  53.0535 158.0100 0001557  76.0350 284.0812 15.06391376 37996","MEAN_MOTION_DOT":"0.00000179","RCS_SIZE":"LARGE","OBJECT_ID":"2021-018AP","PERIOD":"95.593","REV_AT_EPOCH":"3799","OBJECT_TYPE":"PAYLOAD","APOAPSIS":"548.318","MEAN_ANOMALY":"284.0812","MEAN_MOTION_DDOT":"0.0000000000000","CENTER_NAME":"EARTH","BSTAR":"0.00003091000000","EPOCH":"2021-11-07T16:27:25.584192"},{"INCLINATION":"53.0544","OBJECT_NAME":"STARLINK-2410","FILE":"3207836","ELEMENT_SET_NO":"999","GP_ID":"189216692","TIME_SYSTEM":"UTC","RA_OF_ASC_NODE":"157.3072","NORAD_CAT_ID":"47825","COUNTRY_CODE":"US","MEAN_MOTION":"15.06391411","PERIAPSIS":"546.248","TLE_LINE2":"2 47825  53.0544 157.3072 0001432  84.3287 275.7865 15.06391411 38020","MEAN_MOTION_DOT":"-0.00000512","RCS_SIZE":"LARGE","OBJECT_ID":"2021-018AQ","PERIOD":"95.593","REV_AT_EPOCH":"3802","OBJECT_TYPE":"PAYLOAD","MEAN_ANOMALY":"275.7865","APOAPSIS":"548.232","CENTER_NAME":"EARTH","MEAN_MOTION_DDOT":"0.0000000000000","BSTAR":"-0.00001548900000","EPOCH":"2021-11-07T20:05:02.249376","MEAN_ELEMENT_THEORY":"SGP4","DECAY_DATE":null,"SEMIMAJOR_AXIS":"6925.375","REF_FRAME":"TEME","CLASSIFICATION_TYPE":"U","LAUNCH_DATE":"2021-03-11","EPHEMERIS_TYPE":"0","ARG_OF_PERICENTER":"84.3287","ECCENTRICITY":"0.00014320","SITE":"AFETR","TLE_LINE1":"1 47825U 21018AQ  21311.83683159 -.00000512  00000-0 -15489-4 0  9990"},{"CENTER_NAME":"EARTH","MEAN_MOTION_DDOT":"0.0000000000000","BSTAR":"-0.00009808200000","EPOCH":"2021-11-07T19:59:45.579552","APOAPSIS":"548.528","OBJECT_TYPE":"PAYLOAD","MEAN_ANOMALY":"286.4650","PERIOD":"95.593","REV_AT_EPOCH":"3802","RCS_SIZE":"LARGE","MEAN_MOTION_DOT":"-0.00001741","OBJECT_ID":"2021-018AR","TLE_LINE2":"2 47826  53.0540 157.3401 0001804  73.6537 286.4650 15.06378709 38021","MEAN_MOTION":"15.06378709","COUNTRY_CODE":"US","PERIAPSIS":"546.029","TIME_SYSTEM":"UTC","ELEMENT_SET_NO":"999","GP_ID":"189216937","NORAD_CAT_ID":"47826","RA_OF_ASC_NODE":"157.3401","OBJECT_NAME":"STARLINK-2411","FILE":"3207836","INCLINATION":"53.0540","TLE_LINE1":"1 47826U 21018AR  21311.83316643 -.00001741  00000-0 -98082-4 0  9997","SITE":"AFETR","ECCENTRICITY":"0.00018040","LAUNCH_DATE":"2021-03-11","EPHEMERIS_TYPE":"0","ARG_OF_PERICENTER":"73.6537","REF_FRAME":"TEME","CLASSIFICATION_TYPE":"U","DECAY_DATE":null,"SEMIMAJOR_AXIS":"6925.414","MEAN_ELEMENT_THEORY":"SGP4"},{"REF_FRAME":"TEME","CLASSIFICATION_TYPE":"U","LAUNCH_DATE":"2021-03-11","ARG_OF_PERICENTER":"76.3510","EPHEMERIS_TYPE":"0","MEAN_ELEMENT_THEORY":"SGP4","DECAY_DATE":null,"SEMIMAJOR_AXIS":"6925.384","SITE":"AFETR","TLE_LINE1":"1 47827U 21018AS  21311.59355446 -.00000393  00000-0 -74918-5 0  9990","ECCENTRICITY":"0.00014990","COUNTRY_CODE":"US","MEAN_MOTION":"15.06388471","PERIAPSIS":"546.211","TLE_LINE2":"2 47827  53.0564 148.4176 0001499  76.3510 283.7646 15.06388471 37794","INCLINATION":"53.0564","OBJECT_NAME":"STARLINK-2413","FILE":"3207618","GP_ID":"189189778","ELEMENT_SET_NO":"999","TIME_SYSTEM":"UTC","RA_OF_ASC_NODE":"148.4176","NORAD_CAT_ID":"47827","OBJECT_TYPE":"PAYLOAD","MEAN_ANOMALY":"283.7646","APOAPSIS":"548.287","MEAN_MOTION_DDOT":"0.0000000000000","CENTER_NAME":"EARTH","EPOCH":"2021-11-07T14:14:43.105344","BSTAR":"-0.00000749180000","MEAN_MOTION_DOT":"-0.00000393","RCS_SIZE":"LARGE","OBJECT_ID":"2021-018AS","PERIOD":"95.593","REV_AT_EPOCH":"3779"},{"OBJECT_ID":"2021-018AT","MEAN_MOTION_DOT":"-0.00002273","RCS_SIZE":"LARGE","REV_AT_EPOCH":"3789","PERIOD":"95.593","APOAPSIS":"548.307","OBJECT_TYPE":"PAYLOAD","MEAN_ANOMALY":"292.4919","EPOCH":"2021-11-07T21:12:42.983712","BSTAR":"-0.00013381000000","MEAN_MOTION_DDOT":"0.0000000000000","CENTER_NAME":"EARTH","INCLINATION":"53.0548","OBJECT_NAME":"STARLINK-2415","FILE":"3207836","RA_OF_ASC_NODE":"167.1097","NORAD_CAT_ID":"47828","ELEMENT_SET_NO":"999","GP_ID":"189215441","TIME_SYSTEM":"UTC","PERIAPSIS":"546.197","COUNTRY_CODE":"US","MEAN_MOTION":"15.06387478","TLE_LINE2":"2 47828  53.0548 167.1097 0001524  67.6231 292.4919 15.06387478 37896","ECCENTRICITY":"0.00015240","SITE":"AFETR","TLE_LINE1":"1 47828U 21018AT  21311.88383083 -.00002273  00000-0 -13381-3 0  9995","MEAN_ELEMENT_THEORY":"SGP4","SEMIMAJOR_AXIS":"6925.387","DECAY_DATE":null,"CLASSIFICATION_TYPE":"U","REF_FRAME":"TEME","EPHEMERIS_TYPE":"0","ARG_OF_PERICENTER":"67.6231","LAUNCH_DATE":"2021-03-11"},{"TLE_LINE2":"2 47829  53.0548 167.0308 0001598  73.7849 286.3316 15.06389380 37881","MEAN_MOTION":"15.06389380","COUNTRY_CODE":"US","PERIAPSIS":"546.139","TIME_SYSTEM":"UTC","GP_ID":"189216192","ELEMENT_SET_NO":"999","NORAD_CAT_ID":"47829","RA_OF_ASC_NODE":"167.0308","FILE":"3207836","OBJECT_NAME":"STARLINK-2416","INCLINATION":"53.0548","MEAN_MOTION_DDOT":"0.0000000000000","CENTER_NAME":"EARTH","BSTAR":"-0.00006769600000","EPOCH":"2021-11-07T21:39:15.009120","OBJECT_TYPE":"PAYLOAD","APOAPSIS":"548.353","MEAN_ANOMALY":"286.3316","PERIOD":"95.593","REV_AT_EPOCH":"3788","RCS_SIZE":"MEDIUM","MEAN_MOTION_DOT":"-0.00001289","OBJECT_ID":"2021-018AU","LAUNCH_DATE":"2021-03-11","ARG_OF_PERICENTER":"73.7849","EPHEMERIS_TYPE":"0","REF_FRAME":"TEME","CLASSIFICATION_TYPE":"U","DECAY_DATE":null,"SEMIMAJOR_AXIS":"6925.381","MEAN_ELEMENT_THEORY":"SGP4","TLE_LINE1":"1 47829U 21018AU  21311.90225705 -.00001289  00000-0 -67696-4 0  9990","SITE":"AFETR","ECCENTRICITY":"0.00015980"},{"COUNTRY_CODE":"US","MEAN_MOTION":"15.06387921","PERIAPSIS":"546.464","TLE_LINE2":"2 47830  53.0556 167.0467 0001136  58.6200 301.4900 15.06387921 37886","INCLINATION":"53.0556","OBJECT_NAME":"STARLINK-2419","FILE":"3207836","ELEMENT_SET_NO":"999","GP_ID":"189216437","TIME_SYSTEM":"UTC","RA_OF_ASC_NODE":"167.0467","NORAD_CAT_ID":"47830","OBJECT_TYPE":"PAYLOAD","MEAN_ANOMALY":"301.4900","APOAPSIS":"548.037","MEAN_MOTION_DDOT":"0.0000000000000","CENTER_NAME":"EARTH","EPOCH":"2021-11-07T21:33:58.251168","BSTAR":"-0.00003396300000","MEAN_MOTION_DOT":"-0.00000787","RCS_SIZE":"LARGE","OBJECT_ID":"2021-018AV","PERIOD":"95.593","REV_AT_EPOCH":"3788","REF_FRAME":"TEME","CLASSIFICATION_TYPE":"U","LAUNCH_DATE":"2021-03-11","ARG_OF_PERICENTER":"58.6200","EPHEMERIS_TYPE":"0","MEAN_ELEMENT_THEORY":"SGP4","DECAY_DATE":null,"SEMIMAJOR_AXIS":"6925.386","SITE":"AFETR","TLE_LINE1":"1 47830U 21018AV  21311.89859087 -.00000787  00000-0 -33963-4 0  9998","ECCENTRICITY":"0.00011360"},{"LAUNCH_DATE":"2021-03-11","EPHEMERIS_TYPE":"0","ARG_OF_PERICENTER":"85.4669","REF_FRAME":"TEME","CLASSIFICATION_TYPE":"U","DECAY_DATE":null,"SEMIMAJOR_AXIS":"6925.427","MEAN_ELEMENT_THEORY":"SGP4","TLE_LINE1":"1 47831U 21018AW  21311.83913749 -.00002758  00000-0 -16645-3 0  9996","SITE":"AFETR","ECCENTRICITY":"0.00015380","TLE_LINE2":"2 47831  53.0523 142.3007 0001538  85.4669 274.6496 15.06374370 38280","COUNTRY_CODE":"US","MEAN_MOTION":"15.06374370","PERIAPSIS":"546.227","ELEMENT_SET_NO":"999","GP_ID":"189215692","TIME_SYSTEM":"UTC","RA_OF_ASC_NODE":"142.3007","NORAD_CAT_ID":"47831","INCLINATION":"53.0523","OBJECT_NAME":"STARLINK-2420","FILE":"3207836","MEAN_MOTION_DDOT":"0.0000000000000","CENTER_NAME":"EARTH","EPOCH":"2021-11-07T20:08:21.479136","BSTAR":"-0.00016645000000","OBJECT_TYPE":"PAYLOAD","APOAPSIS":"548.357","MEAN_ANOMALY":"274.6496","PERIOD":"95.594","REV_AT_EPOCH":"3828","MEAN_MOTION_DOT":"-0.00002758","RCS_SIZE":"LARGE","OBJECT_ID":"2021-018AW"},{"OBJECT_TYPE":"PAYLOAD","MEAN_ANOMALY":"286.5323","APOAPSIS":"548.299","CENTER_NAME":"EARTH","MEAN_MOTION_DDOT":"0.0000000000000","BSTAR":"-0.00008158600000","EPOCH":"2021-11-07T22:07:07.536864","MEAN_MOTION_DOT":"-0.00001496","RCS_SIZE":"LARGE","OBJECT_ID":"2021-018AX","PERIOD":"95.593","REV_AT_EPOCH":"3803","COUNTRY_CODE":"US","MEAN_MOTION":"15.06390794","PERIAPSIS":"546.185","TLE_LINE2":"2 47832  53.0551 156.9412 0001526  73.5833 286.5323 15.06390794 38033","INCLINATION":"53.0551","FILE":"3207836","OBJECT_NAME":"STARLINK-2422","GP_ID":"189215942","ELEMENT_SET_NO":"999","TIME_SYSTEM":"UTC","RA_OF_ASC_NODE":"156.9412","NORAD_CAT_ID":"47832","SITE":"AFETR","TLE_LINE1":"1 47832U 21018AX  21311.92161501 -.00001496  00000-0 -81586-4 0  9993","ECCENTRICITY":"0.00015260","REF_FRAME":"TEME","CLASSIFICATION_TYPE":"U","LAUNCH_DATE":"2021-03-11","ARG_OF_PERICENTER":"73.5833","EPHEMERIS_TYPE":"0","MEAN_ELEMENT_THEORY":"SGP4","DECAY_DATE":null,"SEMIMAJOR_AXIS":"6925.377"}];
